[{"OBJECT_NAME":"HULIANWANG DIGUI-97","OBJECT_ID":"2025-258B","EPOCH":"2026-03-05T22:37:15.201120","MEAN_MOTION":13.29332468,"ECCENTRICITY":4.257e-5,"INCLINATION":50.0017,"RA_OF_ASC_NODE":306.1875,"ARG_OF_PERICENTER":99.7495,"MEAN_ANOMALY":260.3426,"EPHEMERIS_TYPE":0,"CLASSIFICATION_TYPE":"U","NORAD_CAT_ID":66413,"ELEMENT_SET_NO":999,"REV_AT_EPOCH":1599,"BSTAR":0.0001573313,"MEAN_MOTION_DOT":-5.1e-7,"MEAN_MOTION_DDOT":0},{"OBJECT_NAME":"HULIANWANG DIGUI-98","OBJECT_ID":"2025-258C","EPOCH":"2026-03-05T22:25:11.167392","MEAN_MOTION":13.29334073,"ECCENTRICITY":4.782e-5,"INCLINATION":50.0053,"RA_OF_ASC_NODE":306.1861,"ARG_OF_PERICENTER":111.698,"MEAN_ANOMALY":248.3943,"EPHEMERIS_TYPE":0,"CLASSIFICATION_TYPE":"U","NORAD_CAT_ID":66414,"ELEMENT_SET_NO":999,"REV_AT_EPOCH":1599,"BSTAR":0.00016232433,"MEAN_MOTION_DOT":-4.9e-7,"MEAN_MOTION_DDOT":0},{"OBJECT_NAME":"HULIANWANG DIGUI-99","OBJECT_ID":"2025-258D","EPOCH":"2026-03-05T21:37:06.703392","MEAN_MOTION":13.29331529,"ECCENTRICITY":3.652e-5,"INCLINATION":50.0052,"RA_OF_ASC_NODE":306.0067,"ARG_OF_PERICENTER":93.5964,"MEAN_ANOMALY":266.495,"EPHEMERIS_TYPE":0,"CLASSIFICATION_TYPE":"U","NORAD_CAT_ID":66415,"ELEMENT_SET_NO":999,"REV_AT_EPOCH":1598,"BSTAR":0.00014021552,"MEAN_MOTION_DOT":-5.9e-7,"MEAN_MOTION_DDOT":0},{"OBJECT_NAME":"HULIANWANG DIGUI-100","OBJECT_ID":"2025-258E","EPOCH":"2026-03-05T22:13:09.857856","MEAN_MOTION":13.29334585,"ECCENTRICITY":3.445e-5,"INCLINATION":50.0055,"RA_OF_ASC_NODE":306.145,"ARG_OF_PERICENTER":91.177,"MEAN_ANOMALY":268.9141,"EPHEMERIS_TYPE":0,"CLASSIFICATION_TYPE":"U","NORAD_CAT_ID":66416,"ELEMENT_SET_NO":999,"REV_AT_EPOCH":1600,"BSTAR":0.0001564413,"MEAN_MOTION_DOT":-5.1e-7,"MEAN_MOTION_DDOT":0},{"OBJECT_NAME":"HULIANWANG DIGUI-101","OBJECT_ID":"2025-258F","EPOCH":"2026-03-05T22:01:09.332832","MEAN_MOTION":13.29332756,"ECCENTRICITY":3.767e-5,"INCLINATION":50.0005,"RA_OF_ASC_NODE":306.0428,"ARG_OF_PERICENTER":86.9181,"MEAN_ANOMALY":273.1734,"EPHEMERIS_TYPE":0,"CLASSIFICATION_TYPE":"U","NORAD_CAT_ID":66417,"ELEMENT_SET_NO":999,"REV_AT_EPOCH":1600,"BSTAR":0.00014833749,"MEAN_MOTION_DOT":-5.5e-7,"MEAN_MOTION_DDOT":0},{"OBJECT_NAME":"HULIANWANG DIGUI-102","OBJECT_ID":"2025-258G","EPOCH":"2026-03-05T21:25:01.427232","MEAN_MOTION":13.29334632,"ECCENTRICITY":3.866e-5,"INCLINATION":50.0019,"RA_OF_ASC_NODE":305.9233,"ARG_OF_PERICENTER":105.31,"MEAN_ANOMALY":254.7815,"EPHEMERIS_TYPE":0,"CLASSIFICATION_TYPE":"U","NORAD_CAT_ID":66418,"ELEMENT_SET_NO":999,"REV_AT_EPOCH":1599,"BSTAR":0.0001510147,"MEAN_MOTION_DOT":-5.4e-7,"MEAN_MOTION_DDOT":0},{"OBJECT_NAME":"HULIANWANG DIGUI-103","OBJECT_ID":"2025-258H","EPOCH":"2026-03-05T21:13:01.513056","MEAN_MOTION":13.29333659,"ECCENTRICITY":3.169e-5,"INCLINATION":50.0013,"RA_OF_ASC_NODE":305.8719,"ARG_OF_PERICENTER":88.0653,"MEAN_ANOMALY":272.0255,"EPHEMERIS_TYPE":0,"CLASSIFICATION_TYPE":"U","NORAD_CAT_ID":66419,"ELEMENT_SET_NO":999,"REV_AT_EPOCH":1599,"BSTAR":0.00016103247,"MEAN_MOTION_DOT":-4.9e-7,"MEAN_MOTION_DDOT":0},{"OBJECT_NAME":"HULIANWANG DIGUI-104","OBJECT_ID":"2025-258J","EPOCH":"2026-03-05T21:01:01.075296","MEAN_MOTION":13.29333039,"ECCENTRICITY":4.104e-5,"INCLINATION":50.003,"RA_OF_ASC_NODE":305.8511,"ARG_OF_PERICENTER":109.5621,"MEAN_ANOMALY":250.5296,"EPHEMERIS_TYPE":0,"CLASSIFICATION_TYPE":"U","NORAD_CAT_ID":66420,"ELEMENT_SET_NO":999,"REV_AT_EPOCH":1598,"BSTAR":0.0001544358,"MEAN_MOTION_DOT":-5.2e-7,"MEAN_MOTION_DDOT":0},{"OBJECT_NAME":"HULIANWANG DIGUI-105","OBJECT_ID":"2025-285A","EPOCH":"2026-03-05T19:18:22.801248","MEAN_MOTION":13.29330879,"ECCENTRICITY":9.04e-6,"INCLINATION":50.0044,"RA_OF_ASC_NODE":156.9981,"ARG_OF_PERICENTER":295.1357,"MEAN_ANOMALY":64.9506,"EPHEMERIS_TYPE":0,"CLASSIFICATION_TYPE":"U","NORAD_CAT_ID":66915,"ELEMENT_SET_NO":999,"REV_AT_EPOCH":1230,"BSTAR":8.0718079e-5,"MEAN_MOTION_DOT":-8.7e-7,"MEAN_MOTION_DDOT":0},{"OBJECT_NAME":"HULIANWANG DIGUI-106","OBJECT_ID":"2025-285B","EPOCH":"2026-03-04T19:39:18.815328","MEAN_MOTION":13.29477796,"ECCENTRICITY":0.00070993,"INCLINATION":50.0043,"RA_OF_ASC_NODE":160.4766,"ARG_OF_PERICENTER":27.2323,"MEAN_ANOMALY":332.8921,"EPHEMERIS_TYPE":0,"CLASSIFICATION_TYPE":"U","NORAD_CAT_ID":66916,"ELEMENT_SET_NO":999,"REV_AT_EPOCH":1217,"BSTAR":-1.4099124,"MEAN_MOTION_DOT":-0.00628381,"MEAN_MOTION_DDOT":0},{"OBJECT_NAME":"HULIANWANG DIGUI-107","OBJECT_ID":"2025-285C","EPOCH":"2026-03-05T15:17:48.802560","MEAN_MOTION":13.29330711,"ECCENTRICITY":2.26e-6,"INCLINATION":50.0021,"RA_OF_ASC_NODE":157.4322,"ARG_OF_PERICENTER":303.9534,"MEAN_ANOMALY":56.1336,"EPHEMERIS_TYPE":0,"CLASSIFICATION_TYPE":"U","NORAD_CAT_ID":66917,"ELEMENT_SET_NO":999,"REV_AT_EPOCH":1228,"BSTAR":6.1796016e-5,"MEAN_MOTION_DOT":-9.5e-7,"MEAN_MOTION_DDOT":0},{"OBJECT_NAME":"HULIANWANG DIGUI-108","OBJECT_ID":"2025-285D","EPOCH":"2026-03-05T11:29:15.387648","MEAN_MOTION":13.2933136,"ECCENTRICITY":1.9e-6,"INCLINATION":50.0044,"RA_OF_ASC_NODE":157.9452,"ARG_OF_PERICENTER":314.947,"MEAN_ANOMALY":45.14,"EPHEMERIS_TYPE":0,"CLASSIFICATION_TYPE":"U","NORAD_CAT_ID":66918,"ELEMENT_SET_NO":999,"REV_AT_EPOCH":1226,"BSTAR":8.6952e-5,"MEAN_MOTION_DOT":-8.4e-7,"MEAN_MOTION_DDOT":0},{"OBJECT_NAME":"HULIANWANG DIGUI-109","OBJECT_ID":"2025-285E","EPOCH":"2026-03-05T14:53:44.731968","MEAN_MOTION":13.29331111,"ECCENTRICITY":5.5e-6,"INCLINATION":50.0067,"RA_OF_ASC_NODE":157.3824,"ARG_OF_PERICENTER":341.0521,"MEAN_ANOMALY":19.0349,"EPHEMERIS_TYPE":0,"CLASSIFICATION_TYPE":"U","NORAD_CAT_ID":66919,"ELEMENT_SET_NO":999,"REV_AT_EPOCH":1229,"BSTAR":0.00011873,"MEAN_MOTION_DOT":-6.9e-7,"MEAN_MOTION_DDOT":0},{"OBJECT_NAME":"HULIANWANG DIGUI-110","OBJECT_ID":"2025-285F","EPOCH":"2026-03-05T18:18:14.477184","MEAN_MOTION":13.29330272,"ECCENTRICITY":5.49e-6,"INCLINATION":50.0099,"RA_OF_ASC_NODE":156.8259,"ARG_OF_PERICENTER":293.4246,"MEAN_ANOMALY":66.662,"EPHEMERIS_TYPE":0,"CLASSIFICATION_TYPE":"U","NORAD_CAT_ID":66920,"ELEMENT_SET_NO":999,"REV_AT_EPOCH":1230,"BSTAR":6.9735825e-5,"MEAN_MOTION_DOT":-9.2e-7,"MEAN_MOTION_DDOT":0},{"OBJECT_NAME":"HULIANWANG DIGUI-111","OBJECT_ID":"2025-285G","EPOCH":"2026-03-05T18:06:12.612096","MEAN_MOTION":13.29330458,"ECCENTRICITY":7.6e-6,"INCLINATION":50.0117,"RA_OF_ASC_NODE":156.7962,"ARG_OF_PERICENTER":310.8727,"MEAN_ANOMALY":49.2139,"EPHEMERIS_TYPE":0,"CLASSIFICATION_TYPE":"U","NORAD_CAT_ID":66921,"ELEMENT_SET_NO":999,"REV_AT_EPOCH":1230,"BSTAR":9.6014672e-5,"MEAN_MOTION_DOT":-7.9e-7,"MEAN_MOTION_DDOT":0},{"OBJECT_NAME":"HULIANWANG DIGUI-112","OBJECT_ID":"2025-285H","EPOCH":"2026-03-05T17:54:10.915488","MEAN_MOTION":13.29331072,"ECCENTRICITY":9.48e-6,"INCLINATION":50.008,"RA_OF_ASC_NODE":156.7248,"ARG_OF_PERICENTER":304.9917,"MEAN_ANOMALY":55.0947,"EPHEMERIS_TYPE":0,"CLASSIFICATION_TYPE":"U","NORAD_CAT_ID":66922,"ELEMENT_SET_NO":999,"REV_AT_EPOCH":1230,"BSTAR":0.00015900147,"MEAN_MOTION_DOT":-5.0e-7,"MEAN_MOTION_DDOT":0}]
