HULIANWANG DIGUI-97     
1 66413U 25258B   26064.94253705 -.00000051  00000+0  15733-3 0  9993
2 66413  50.0017 306.1875 0000425  99.7495 260.3426 13.29332468 15997
HULIANWANG DIGUI-98     
1 66414U 25258C   26064.93415703 -.00000049  00000+0  16232-3 0  9993
2 66414  50.0053 306.1861 0000478 111.6980 248.3943 13.29334073 15998
HULIANWANG DIGUI-99     
1 66415U 25258D   26064.90077203 -.00000059  00000+0  14022-3 0  9996
2 66415  50.0052 306.0067 0000365  93.5964 266.4950 13.29331529 15981
HULIANWANG DIGUI-100    
1 66416U 25258E   26064.92580854 -.00000051  00000+0  15644-3 0  9993
2 66416  50.0055 306.1450 0000344  91.1770 268.9141 13.29334585 16006
HULIANWANG DIGUI-101    
1 66417U 25258F   26064.91746913 -.00000055  00000+0  14834-3 0  9997
2 66417  50.0005 306.0428 0000376  86.9181 273.1734 13.29332756 16003
HULIANWANG DIGUI-102    
1 66418U 25258G   26064.89237763 -.00000054  00000+0  15101-3 0  9990
2 66418  50.0019 305.9233 0000386 105.3100 254.7815 13.29334632 15996
HULIANWANG DIGUI-103    
1 66419U 25258H   26064.88404529 -.00000049  00000+0  16103-3 0  9993
2 66419  50.0013 305.8719 0000316  88.0653 272.0255 13.29333659 15991
HULIANWANG DIGUI-104    
1 66420U 25258J   26064.87570689 -.00000052  00000+0  15444-3 0  9996
2 66420  50.0030 305.8511 0000410 109.5621 250.5296 13.29333039 15988
HULIANWANG DIGUI-105    
1 66915U 25285A   26064.80443057 -.00000087  00000+0  80718-4 0  9991
2 66915  50.0044 156.9981 0000090 295.1357  64.9506 13.29330879 12303
HULIANWANG DIGUI-106    
1 66916U 25285B   26063.81896777 -.00628381  00000+0 -14099+1 0  9992
2 66916  50.0043 160.4766 0007099  27.2323 332.8921 13.29477796 12170
HULIANWANG DIGUI-107    
1 66917U 25285C   26064.63737040 -.00000095  00000+0  61796-4 0  9996
2 66917  50.0021 157.4322 0000022 303.9534  56.1336 13.29330711 12281
HULIANWANG DIGUI-108    
1 66918U 25285D   26064.47865032 -.00000084  00000+0  86952-4 0  9991
2 66918  50.0044 157.9452 0000019 314.9470  45.1400 13.29331360 12262
HULIANWANG DIGUI-109    
1 66919U 25285E   26064.62065662 -.00000069  00000+0  11873-3 0  9992
2 66919  50.0067 157.3824 0000055 341.0521  19.0349 13.29331111 12292
HULIANWANG DIGUI-110    
1 66920U 25285F   26064.76266756 -.00000092  00000+0  69736-4 0  9994
2 66920  50.0099 156.8259 0000054 293.4246  66.6620 13.29330272 12307
HULIANWANG DIGUI-111    
1 66921U 25285G   26064.75431264 -.00000079  00000+0  96015-4 0  9997
2 66921  50.0117 156.7962 0000076 310.8727  49.2139 13.29330458 12309
HULIANWANG DIGUI-112    
1 66922U 25285H   26064.74595967 -.00000050  00000+0  15900-3 0  9990
2 66922  50.0080 156.7248 0000094 304.9917  55.0947 13.29331072 12306
